[{"OBJECT_NAME":"STARLINK-36090","OBJECT_ID":"2025-281H","EPOCH":"2026-03-09T04:35:08.685600","MEAN_MOTION":15.27566656,"ECCENTRICITY":0.00013555,"INCLINATION":42.9996,"RA_OF_ASC_NODE":345.9085,"ARG_OF_PERICENTER":301.0577,"MEAN_ANOMALY":59.0141,"EPHEMERIS_TYPE":0,"CLASSIFICATION_TYPE":"U","NORAD_CAT_ID":66855,"ELEMENT_SET_NO":999,"REV_AT_EPOCH":1611,"BSTAR":0.00094453675,"MEAN_MOTION_DOT":0.0002581,"MEAN_MOTION_DDOT":0},{"OBJECT_NAME":"PUCP-SAT 1","OBJECT_ID":"2013-066AC","EPOCH":"2026-03-09T22:02:13.763904","MEAN_MOTION":15.29426022,"ECCENTRICITY":0.00136836,"INCLINATION":97.5787,"RA_OF_ASC_NODE":61.0032,"ARG_OF_PERICENTER":300.1183,"MEAN_ANOMALY":59.87,"EPHEMERIS_TYPE":0,"CLASSIFICATION_TYPE":"U","NORAD_CAT_ID":39442,"ELEMENT_SET_NO":999,"REV_AT_EPOCH":66907,"BSTAR":0.00088755185,"MEAN_MOTION_DOT":0.00025373,"MEAN_MOTION_DDOT":0}]
